{"type": "FeatureCollection", "features": [ {"type": "Feature", "properties": {"norad_id": 35043, "name": "COSMOS 2251 DEB", "group": "cosmos-2251-debris", "lat": 72.04737604857927, "lon": 99.89572834422094, "alt_km": 695.8171282668736, "timestamp": "2025-12-16T23:36:36.593946+00:00", "meta": {"OBJECT_NAME": "COSMOS 2251 DEB", "OBJECT_ID": "1993-036AHG", "EPOCH": "2025-12-15T19:36:09.229536", "MEAN_MOTION": 14.77121808, "ECCENTRICITY": 0.00962449, "INCLINATION": 73.9502, "RA_OF_ASC_NODE": 39.5099, "ARG_OF_PERICENTER": 248.3461, "MEAN_ANOMALY": 110.7443, "EPHEMERIS_TYPE": 0, "CLASSIFICATION_TYPE": "U", "NORAD_CAT_ID": 35043, "ELEMENT_SET_NO": 999, "REV_AT_EPOCH": 67464, "BSTAR": 0.0021635766, "MEAN_MOTION_DOT": 0.00016517, "MEAN_MOTION_DDOT": 0}, "tle": {"line1": "1 35043U 93036AHG 25349.81677349  .00016517  00000+0  21636-2 0  9993", "line2": "2 35043  73.9502  39.5099 0096244 248.3461 110.7443 14.77121808674647"}}, "geometry": {"type": "Point", "coordinates": [99.89572834422094, 72.04737604857927]}}, {"type": "Feature", "properties": {"norad_id": 35045, "name": "COSMOS 2251 DEB", "group": "cosmos-2251-debris", "lat": 3.5094137828538017, "lon": -135.8173563815417, "alt_km": 938.8724088766703, "timestamp": "2025-12-16T23:36:36.593956+00:00", "meta": {"OBJECT_NAME": "COSMOS 2251 DEB", "OBJECT_ID": "1993-036AHJ", "EPOCH": "2025-12-15T10:44:56.343840", "MEAN_MOTION": 14.00391051, "ECCENTRICITY": 0.01837483, "INCLINATION": 73.7197, "RA_OF_ASC_NODE": 47.9208, "ARG_OF_PERICENTER": 289.5539, "MEAN_ANOMALY": 68.5833, "EPHEMERIS_TYPE": 0, "CLASSIFICATION_TYPE": "U", "NORAD_CAT_ID": 35045, "ELEMENT_SET_NO": 999, "REV_AT_EPOCH": 84681, "BSTAR": 0.00065789188, "MEAN_MOTION_DOT": 1.1e-05, "MEAN_MOTION_DDOT": 0}, "tle": {"line1": "1 35045U 93036AHJ 25349.44787435  .00001100  00000+0  65789-3 0  9992", "line2": "2 35045  73.7197  47.9208 0183748 289.5539  68.5833 14.00391051846819"}}, "geometry": {"type": "Point", "coordinates": [-135.8173563815417, 3.5094137828538017]}}, {"type": "Feature", "properties": {"norad_id": 35060, "name": "COSMOS 2251 DEB", "group": "cosmos-2251-debris", "lat": -5.684263538818414, "lon": -125.16304228257283, "alt_km": 745.335477311407, "timestamp": "2025-12-16T23:36:36.593966+00:00", "meta": {"OBJECT_NAME": "COSMOS 2251 DEB", "OBJECT_ID": "1993-036AHP", "EPOCH": "2025-12-12T09:42:56.373696", "MEAN_MOTION": 14.4159863, "ECCENTRICITY": 0.00185395, "INCLINATION": 74.0367, "RA_OF_ASC_NODE": 244.9485, "ARG_OF_PERICENTER": 331.3845, "MEAN_ANOMALY": 28.6291, "EPHEMERIS_TYPE": 0, "CLASSIFICATION_TYPE": "U", "NORAD_CAT_ID": 35060, "ELEMENT_SET_NO": 999, "REV_AT_EPOCH": 87237, "BSTAR": 0.00047553365, "MEAN_MOTION_DOT": 1.524e-05, "MEAN_MOTION_DDOT": 0}, "tle": {"line1": "1 35060U 93036AHP 25346.40481914  .00001524  00000+0  47553-3 0  9994", "line2": "2 35060  74.0367 244.9485 0018539 331.3845  28.6291 14.41598630872378"}}, "geometry": {"type": "Point", "coordinates": [-125.16304228257283, -5.684263538818414]}}, {"type": "Feature", "properties": {"norad_id": 35061, "name": "COSMOS 2251 DEB", "group": "cosmos-2251-debris", "lat": -71.9927001553179, "lon": -124.12322349892104, "alt_km": 692.0885846652764, "timestamp": "2025-12-16T23:36:36.593977+00:00", "meta": {"OBJECT_NAME": "COSMOS 2251 DEB", "OBJECT_ID": "1993-036AHQ", "EPOCH": "2025-12-16T02:43:00.799680", "MEAN_MOTION": 14.67857584, "ECCENTRICITY": 0.00392707, "INCLINATION": 74.0455, "RA_OF_ASC_NODE": 299.2082, "ARG_OF_PERICENTER": 49.0905, "MEAN_ANOMALY": 311.3654, "EPHEMERIS_TYPE": 0, "CLASSIFICATION_TYPE": "U", "NORAD_CAT_ID": 35061, "ELEMENT_SET_NO": 999, "REV_AT_EPOCH": 88624, "BSTAR": 0.00056925781, "MEAN_MOTION_DOT": 3.26e-05, "MEAN_MOTION_DDOT": 0}, "tle": {"line1": "1 35061U 93036AHQ 25350.11320370  .00003260  00000+0  56926-3 0  9999", "line2": "2 35061  74.0455 299.2082 0039270  49.0905 311.3654 14.67857584886248"}}, "geometry": {"type": "Point", "coordinates": [-124.12322349892104, -71.9927001553179]}}, {"type": "Feature", "properties": {"norad_id": 35062, "name": "COSMOS 2251 DEB", "group": "cosmos-2251-debris", "lat": 8.20250070002103, "lon": 87.99802549130938, "alt_km": 793.0241754309664, "timestamp": "2025-12-16T23:36:36.593987+00:00", "meta": {"OBJECT_NAME": "COSMOS 2251 DEB", "OBJECT_ID": "1993-036AHR", "EPOCH": "2025-12-10T15:42:45.436320", "MEAN_MOTION": 14.22906612, "ECCENTRICITY": 0.01275957, "INCLINATION": 74.0784, "RA_OF_ASC_NODE": 96.9836, "ARG_OF_PERICENTER": 97.3041, "MEAN_ANOMALY": 264.2628, "EPHEMERIS_TYPE": 0, "CLASSIFICATION_TYPE": "U", "NORAD_CAT_ID": 35062, "ELEMENT_SET_NO": 999, "REV_AT_EPOCH": 85469, "BSTAR": 0.0028656551, "MEAN_MOTION_DOT": 6.986e-05, "MEAN_MOTION_DDOT": 0}, "tle": {"line1": "1 35062U 93036AHR 25344.65469255  .00006986  00000+0  28657-2 0  9995", "line2": "2 35062  74.0784  96.9836 0127595  97.3041 264.2628 14.22906612854697"}}, "geometry": {"type": "Point", "coordinates": [87.99802549130938, 8.20250070002103]}}, {"type": "Feature", "properties": {"norad_id": 35065, "name": "COSMOS 2251 DEB", "group": "cosmos-2251-debris", "lat": 42.74457471274438, "lon": -158.22704597354485, "alt_km": 736.7204078397863, "timestamp": "2025-12-16T23:36:36.593997+00:00", "meta": {"OBJECT_NAME": "COSMOS 2251 DEB", "OBJECT_ID": "1993-036AHU", "EPOCH": "2025-12-15T07:32:45.576096", "MEAN_MOTION": 14.45733893, "ECCENTRICITY": 0.00199052, "INCLINATION": 74.019, "RA_OF_ASC_NODE": 189.5298, "ARG_OF_PERICENTER": 314.3681, "MEAN_ANOMALY": 45.5846, "EPHEMERIS_TYPE": 0, "CLASSIFICATION_TYPE": "U", "NORAD_CAT_ID": 35065, "ELEMENT_SET_NO": 999, "REV_AT_EPOCH": 68388, "BSTAR": 0.00034144119, "MEAN_MOTION_DOT": 1.186e-05, "MEAN_MOTION_DDOT": 0}, "tle": {"line1": "1 35065U 93036AHU 25349.31441639  .00001186  00000+0  34144-3 0  9998", "line2": "2 35065  74.0190 189.5298 0019905 314.3681  45.5846 14.45733893683886"}}, "geometry": {"type": "Point", "coordinates": [-158.22704597354485, 42.74457471274438]}}, {"type": "Feature", "properties": {"norad_id": 35071, "name": "COSMOS 2251 DEB", "group": "cosmos-2251-debris", "lat": 61.5626643332333, "lon": -163.13113596197212, "alt_km": 502.639826408963, "timestamp": "2025-12-16T23:36:36.594007+00:00", "meta": {"OBJECT_NAME": "COSMOS 2251 DEB", "OBJECT_ID": "1993-036AJA", "EPOCH": "2025-12-15T18:34:31.974816", "MEAN_MOTION": 15.0351885, "ECCENTRICITY": 0.00682233, "INCLINATION": 73.9308, "RA_OF_ASC_NODE": 167.1964, "ARG_OF_PERICENTER": 62.71, "MEAN_ANOMALY": 298.1014, "EPHEMERIS_TYPE": 0, "CLASSIFICATION_TYPE": "U", "NORAD_CAT_ID": 35071, "ELEMENT_SET_NO": 999, "REV_AT_EPOCH": 67582, "BSTAR": 0.00048026378, "MEAN_MOTION_DOT": 6.858e-05, "MEAN_MOTION_DDOT": 0}, "tle": {"line1": "1 35071U 93036AJA 25349.77398119  .00006858  00000+0  48026-3 0  9994", "line2": "2 35071  73.9308 167.1964 0068223  62.7100 298.1014 15.03518850675828"}}, "geometry": {"type": "Point", "coordinates": [-163.13113596197212, 61.5626643332333]}}, {"type": "Feature", "properties": {"norad_id": 35073, "name": "COSMOS 2251 DEB", "group": "cosmos-2251-debris", "lat": 45.108682321436135, "lon": 125.1827098697864, "alt_km": 557.2000931868533, "timestamp": "2025-12-16T23:36:36.594018+00:00", "meta": {"OBJECT_NAME": "COSMOS 2251 DEB", "OBJECT_ID": "1993-036AJC", "EPOCH": "2025-12-15T05:25:47.046144", "MEAN_MOTION": 15.00831653, "ECCENTRICITY": 0.00109074, "INCLINATION": 73.9997, "RA_OF_ASC_NODE": 325.5063, "ARG_OF_PERICENTER": 67.0121, "MEAN_ANOMALY": 293.2216, "EPHEMERIS_TYPE": 0, "CLASSIFICATION_TYPE": "U", "NORAD_CAT_ID": 35073, "ELEMENT_SET_NO": 999, "REV_AT_EPOCH": 67516, "BSTAR": 0.001951072, "MEAN_MOTION_DOT": 0.00024882, "MEAN_MOTION_DDOT": 0}, "tle": {"line1": "1 35073U 93036AJC 25349.22623896  .00024882  00000+0  19511-2 0  9992", "line2": "2 35073  73.9997 325.5063 0010907  67.0121 293.2216 15.00831653675164"}}, "geometry": {"type": "Point", "coordinates": [125.1827098697864, 45.108682321436135]}}, {"type": "Feature", "properties": {"norad_id": 35284, "name": "COSMOS 2251 DEB", "group": "cosmos-2251-debris", "lat": -13.654529414409165, "lon": -107.37406054727596, "alt_km": 756.5147119671847, "timestamp": "2025-12-16T23:36:36.594028+00:00", "meta": {"OBJECT_NAME": "COSMOS 2251 DEB", "OBJECT_ID": "1993-036AJN", "EPOCH": "2025-12-16T00:22:37.828704", "MEAN_MOTION": 14.38321694, "ECCENTRICITY": 0.00169136, "INCLINATION": 74.0489, "RA_OF_ASC_NODE": 258.3918, "ARG_OF_PERICENTER": 334.2537, "MEAN_ANOMALY": 41.1453, "EPHEMERIS_TYPE": 0, "CLASSIFICATION_TYPE": "U", "NORAD_CAT_ID": 35284, "ELEMENT_SET_NO": 999, "REV_AT_EPOCH": 65573, "BSTAR": 0.00015700211, "MEAN_MOTION_DOT": 4.52e-06, "MEAN_MOTION_DDOT": 0}, "tle": {"line1": "1 35284U 93036AJN 25350.01571561  .00000452  00000+0  15700-3 0  9990", "line2": "2 35284  74.0489 258.3918 0016913 334.2537  41.1453 14.38321694655734"}}, "geometry": {"type": "Point", "coordinates": [-107.37406054727596, -13.654529414409165]}}, {"type": "Feature", "properties": {"norad_id": 35287, "name": "COSMOS 2251 DEB", "group": "cosmos-2251-debris", "lat": 45.50206742892342, "lon": 71.39499777102316, "alt_km": 773.983244006603, "timestamp": "2025-12-16T23:36:36.594038+00:00", "meta": {"OBJECT_NAME": "COSMOS 2251 DEB", "OBJECT_ID": "1993-036AJR", "EPOCH": "2025-12-16T05:18:36.274752", "MEAN_MOTION": 14.36379576, "ECCENTRICITY": 0.00177263, "INCLINATION": 74.0305, "RA_OF_ASC_NODE": 269.7384, "ARG_OF_PERICENTER": 5.6153, "MEAN_ANOMALY": 144.9594, "EPHEMERIS_TYPE": 0, "CLASSIFICATION_TYPE": "U", "NORAD_CAT_ID": 35287, "ELEMENT_SET_NO": 999, "REV_AT_EPOCH": 86942, "BSTAR": 0.0001345517, "MEAN_MOTION_DOT": 3.68e-06, "MEAN_MOTION_DDOT": 0}, "tle": {"line1": "1 35287U 93036AJR 25350.22125318  .00000368  00000+0  13455-3 0  9992", "line2": "2 35287  74.0305 269.7384 0017726   5.6153 144.9594 14.36379576869424"}}, "geometry": {"type": "Point", "coordinates": [71.39499777102316, 45.50206742892342]}}]}